NORAD_CAT_ID,OBJECT_NAME,OBJECT_TYPE,EPOCH,MEAN_MOTION,ECCENTRICITY,INCLINATION,RA_OF_ASC_NODE,ARG_OF_PERICENTER,MEAN_ANOMALY,BSTAR,MEAN_MOTION_DOT,MEAN_MOTION_DDOT,TLE_LINE0,TLE_LINE1,TLE_LINE2,SEMIMAJOR_AXIS,PERIOD,APOGEE,PERIGEE,DECAYED
53532.0,STARLINK-4483,PAYLOAD,2023-01-30 23:17:15,15.08846339,0.0001111,53.2167,123.5905,88.9766,271.1354,2.6696e-05,1.37e-06,0.0,0 STARLINK-4483,1 53532U 22101F   23030.97031974  .00000137  00000-0  26696-4 0  9996,2 53532  53.2167 123.5905 0001111  88.9766 271.1354 15.08846339 25015,6917.861,95.437,540.495,538.957,0.0
53532.0,STARLINK-4483,PAYLOAD,2023-01-31 12:00:19,15.08905056,7.71e-05,53.2164,121.2116,80.2089,279.8991,-0.00081841,-0.00013312,0.0,0 STARLINK-4483,1 53532U 22101F   23031.50022405 -.00013312  00000-0 -81841-3 0  9998,2 53532  53.2164 121.2116 0000771  80.2089 279.8991 15.08905056 25097,6917.682,95.433,540.08,539.013,0.0
53532.0,STARLINK-4483,PAYLOAD,2023-01-31 15:11:06,15.08850096,0.0001192,53.2167,120.6169,89.3496,270.7633,8.772e-06,-1.48e-06,0.0,0 STARLINK-4483,1 53532U 22101F   23031.63271852 -.00000148  00000-0  87720-5 0  9990,2 53532  53.2167 120.6169 0001192  89.3496 270.7633 15.08850096 25110,6917.85,95.437,540.539,538.89,0.0
53532.0,STARLINK-4483,PAYLOAD,2023-01-31 23:08:02,15.08842909,0.0001278,53.2183,119.1304,87.4177,272.6962,0.00011622,1.562e-05,0.0,0 STARLINK-4483,1 53532U 22101F   23031.96392125  .00001562  00000-0  11622-3 0  9999,2 53532  53.2183 119.1304 0001278  87.4177 272.6962 15.08842909 25167,6917.871,95.437,540.621,538.852,0.0
53532.0,STARLINK-4483,PAYLOAD,2023-02-01 11:51:07,15.08845808,0.000127,53.2164,116.7508,90.7622,269.3516,8.7546e-05,1.106e-05,0.0,0 STARLINK-4483,1 53532U 22101F   23032.49383906  .00001106  00000-0  87546-4 0  9998,2 53532  53.2164 116.7508 0001270  90.7622 269.3516 15.08845808 25247,6917.863,95.437,540.606,538.849,0.0
53532.0,STARLINK-4483,PAYLOAD,2023-02-02 11:41:55,15.08838767,0.0001419,53.2177,112.2922,80.9384,279.1769,-8.9166e-06,-4.3e-06,0.0,0 STARLINK-4483,1 53532U 22101F   23033.48744606 -.00000430  00000-0 -89166-5 0  9998,2 53532  53.2177 112.2922 0001419  80.9384 279.1769 15.08838767 25394,6917.884,95.438,540.731,538.768,0.0
53532.0,STARLINK-4483,PAYLOAD,2023-02-02 14:52:41,15.08843966,0.0001291,53.2171,111.6935,103.4409,256.6727,-2.1118e-05,-6.24e-06,0.0,0 STARLINK-4483,1 53532U 22101F   23033.61992143 -.00000624  00000-0 -21118-4 0  9991,2 53532  53.2171 111.6935 0001291 103.4409 256.6727 15.08843966 25416,6917.868,95.437,540.626,538.84,0.0
53532.0,STARLINK-4483,PAYLOAD,2023-02-03 05:11:09,15.08832869,0.0001261,53.2168,109.0166,110.2306,249.8821,2.0666e-05,4.1e-07,0.0,0 STARLINK-4483,1 53532U 22101F   23034.21608764  .00000041  00000-0  20666-4 0  9999,2 53532  53.2168 109.0166 0001261 110.2306 249.8821 15.08832869 25507,6917.902,95.438,540.64,538.895,0.0
53532.0,STARLINK-4483,PAYLOAD,2023-02-03 09:57:19,15.08836074,0.0001293,53.2171,108.1247,111.423,248.69,4.9878e-05,5.06e-06,0.0,0 STARLINK-4483,1 53532U 22101F   23034.41480531  .00000506  00000-0  49878-4 0  9993,2 53532  53.2171 108.1247 0001293 111.4230 248.6900 15.08836074 25535,6917.892,95.438,540.652,538.863,0.0
53532.0,STARLINK-4483,PAYLOAD,2023-02-04 11:23:29,15.08843977,0.0001347,53.2177,103.369,102.0041,258.1102,9.9561e-05,1.297e-05,0.0,0 STARLINK-4483,1 53532U 22101F   23035.47464166  .00001297  00000-0  99561-4 0  9998,2 53532  53.2177 103.3690 0001347 102.0041 258.1102 15.08843977 25693,6917.868,95.437,540.665,538.801,0.0
53532.0,STARLINK-4483,PAYLOAD,2023-02-04 20:55:48,15.08840613,0.0001237,53.2173,101.585,93.6718,266.4416,2.9892e-05,1.88e-06,0.0,0 STARLINK-4483,1 53532U 22101F   23035.87208559  .00000188  00000-0  29892-4 0  9992,2 53532  53.2173 101.5850 0001237  93.6718 266.4416 15.08840613 25752,6917.879,95.438,540.599,538.888,0.0
53532.0,STARLINK-4483,PAYLOAD,2023-02-05 12:49:39,15.08837812,0.00012,53.2185,98.6126,101.508,258.6047,6.0654e-05,6.78e-06,0.0,0 STARLINK-4483,1 53532U 22101F   23036.53448915  .00000678  00000-0  60654-4 0  9993,2 53532  53.2185  98.6126 0001200 101.5080 258.6047 15.08837812 25859,6917.887,95.438,540.582,538.922,0.0
53532.0,STARLINK-4483,PAYLOAD,2023-02-05 20:46:35,15.08835746,0.0001066,53.2171,97.1235,102.6643,257.4469,6.2107e-05,7.01e-06,0.0,0 STARLINK-4483,1 53532U 22101F   23036.86569111  .00000701  00000-0  62107-4 0  9993,2 53532  53.2171  97.1235 0001066 102.6643 257.4469 15.08835746 25901,6917.893,95.438,540.496,539.021,0.0
53532.0,STARLINK-4483,PAYLOAD,2023-02-06 03:08:08,15.08839368,0.0001011,53.2172,95.9339,99.7317,260.379,-1.3302e-05,-4.99e-06,0.0,0 STARLINK-4483,1 53532U 22101F   23037.13065183 -.00000499  00000-0 -13302-4 0  9993,2 53532  53.2172  95.9339 0001011  99.7317 260.3790 15.08839368 25945,6917.882,95.438,540.447,539.048,0.0
53532.0,STARLINK-4483,PAYLOAD,2023-02-06 11:05:03,15.08848859,0.0001076,53.2171,94.4475,92.8488,267.2627,7.483e-05,9.04e-06,0.0,0 STARLINK-4483,1 53532U 22101F   23037.46184366  .00000904  00000-0  74830-4 0  9996,2 53532  53.2171  94.4475 0001076  92.8488 267.2627 15.08848859 25998,6917.853,95.437,540.463,538.974,0.0
53532.0,STARLINK-4483,PAYLOAD,2023-02-06 20:37:21,15.08854022,0.0001109,53.2172,92.6634,84.489,275.6229,8.2086e-05,1.019e-05,0.0,0 STARLINK-4483,1 53532U 22101F   23037.85927879  .00001019  00000-0  82086-4 0  9993,2 53532  53.2172  92.6634 0001109  84.4890 275.6229 15.08854022 26055,6917.838,95.437,540.47,538.935,0.0
53532.0,STARLINK-4483,PAYLOAD,2023-02-07 10:55:50,15.08845862,0.0001123,53.2176,89.9882,85.3792,274.7328,0.00014196,1.973e-05,0.0,0 STARLINK-4483,1 53532U 22101F   23038.45544276  .00001973  00000-0  14196-3 0  9991,2 53532  53.2176  89.9882 0001123  85.3792 274.7328 15.08845862 26142,6917.862,95.437,540.504,538.951,0.0
53532.0,STARLINK-4483,PAYLOAD,2023-02-07 12:31:12,15.08853998,9.12e-05,53.2171,89.6886,84.7642,275.3454,0.00018462,2.653e-05,0.0,0 STARLINK-4483,1 53532U 22101F   23038.52167553  .00002653  00000-0  18462-3 0  9994,2 53532  53.2171  89.6886 0000912  84.7642 275.3454 15.08853998 26157,6917.838,95.437,540.334,539.072,0.0
53532.0,STARLINK-4483,PAYLOAD,2023-02-07 20:28:09,15.08840238,9.31e-05,53.2169,88.2031,80.4439,279.6658,7.1287e-05,8.47e-06,0.0,0 STARLINK-4483,1 53532U 22101F   23038.85288755  .00000847  00000-0  71287-4 0  9996,2 53532  53.2169  88.2031 0000931  80.4439 279.6658 15.08840238 26201,6917.88,95.438,540.389,539.101,0.0
53532.0,STARLINK-4483,PAYLOAD,2023-02-08 12:22:00,15.088491,0.0001273,53.2168,85.229,75.5827,284.5307,9.9954e-05,1.304e-05,0.0,0 STARLINK-4483,1 53532U 22101F   23039.51528234  .00001304  00000-0  99954-4 0  9999,2 53532  53.2168  85.2290 0001273  75.5827 284.5307 15.08849100 26304,6917.853,95.437,540.598,538.837,0.0
53532.0,STARLINK-4483,PAYLOAD,2023-02-08 20:18:56,15.08842378,0.0001215,53.2173,83.7433,86.6175,273.4956,3.1762e-05,2.18e-06,0.0,0 STARLINK-4483,1 53532U 22101F   23039.84648580  .00000218  00000-0  31762-4 0  9998,2 53532  53.2173  83.7433 0001215  86.6175 273.4956 15.08842378 26359,6917.873,95.437,540.579,538.898,0.0
53532.0,STARLINK-4483,PAYLOAD,2023-02-09 02:40:29,15.08835816,0.0001173,53.2165,82.5542,90.7749,269.3377,8.8286e-05,1.117e-05,0.0,0 STARLINK-4483,1 53532U 22101F   23040.11145001  .00001117  00000-0  88286-4 0  9992,2 53532  53.2165  82.5542 0001173  90.7749 269.3377 15.08835816 26398,6917.893,95.438,540.57,538.947,0.0
53532.0,STARLINK-4483,PAYLOAD,2023-02-09 10:37:24,15.08847984,0.000139,53.2159,81.0655,99.3706,260.7443,0.00016593,2.354e-05,0.0,0 STARLINK-4483,1 53532U 22101F   23040.44264453  .00002354  00000-0  16593-3 0  9996,2 53532  53.2159  81.0655 0001390  99.3706 260.7443 15.08847984 26443,6917.856,95.437,540.683,538.759,0.0
53532.0,STARLINK-4483,PAYLOAD,2023-02-09 12:12:47,15.088481,0.0001362,53.2151,80.7679,100.1225,259.9921,0.00030095,4.506e-05,0.0,0 STARLINK-4483,1 53532U 22101F   23040.50888540  .00004506  00000-0  30095-3 0  9996,2 53532  53.2151  80.7679 0001362 100.1225 259.9921 15.08848100 26456,6917.856,95.437,540.663,538.778,0.0
53532.0,STARLINK-4483,PAYLOAD,2023-02-10 02:31:16,15.08834051,0.0001086,53.2176,78.0926,98.683,261.4286,0.00020785,3.021e-05,0.0,0 STARLINK-4483,1 53532U 22101F   23041.10505531  .00003021  00000-0  20785-3 0  9995,2 53532  53.2176  78.0926 0001086  98.6830 261.4286 15.08834051 26546,6917.899,95.438,540.515,539.012,0.0
53532.0,STARLINK-4483,PAYLOAD,2023-02-10 10:28:12,15.08848729,0.0001454,53.2158,76.6038,105.2936,254.8217,0.00046464,7.116e-05,0.0,0 STARLINK-4483,1 53532U 22101F   23041.43625112  .00007116  00000-0  46464-3 0  9990,2 53532  53.2158  76.6038 0001454 105.2936 254.8217 15.08848729 26597,6917.854,95.437,540.725,538.713,0.0
53532.0,STARLINK-4483,PAYLOAD,2023-02-11 10:18:59,15.08843157,0.000153,53.216,72.1424,109.3642,250.7515,0.00022112,3.233e-05,0.0,0 STARLINK-4483,1 53532U 22101F   23042.42985326  .00003233  00000-0  22112-3 0  9996,2 53532  53.2160  72.1424 0001530 109.3642 250.7515 15.08843157 26747,6917.871,95.437,540.794,538.677,0.0
53532.0,STARLINK-4483,PAYLOAD,2023-02-13 02:03:38,15.08838931,0.000179,53.2185,64.7134,115.5112,244.6065,-6.705e-05,-1.355e-05,0.0,0 STARLINK-4483,1 53532U 22101F   23044.08586065 -.00001355  00000-0 -67050-4 0  9993,2 53532  53.2185  64.7134 0001790 115.5112 244.6065 15.08838931 26991,6917.884,95.438,540.987,538.51,0.0
53532.0,STARLINK-4483,PAYLOAD,2023-02-13 11:35:56,15.08848544,0.0001189,53.2166,62.9271,102.9229,257.1896,0.00021882,3.197e-05,0.0,0 STARLINK-4483,1 53532U 22101F   23044.48329341  .00003197  00000-0  21882-3 0  9995,2 53532  53.2166  62.9271 0001189 102.9229 257.1896 15.08848544 27053,6917.854,95.437,540.542,538.897,0.0
53532.0,STARLINK-4483,PAYLOAD,2023-02-14 11:26:44,15.08842359,0.0001316,53.2166,58.4646,85.7821,274.3321,0.00022377,3.275e-05,0.0,0 STARLINK-4483,1 53532U 22101F   23045.47690193  .00003275  00000-0  22377-3 0  9998,2 53532  53.2166  58.4646 0001316  85.7821 274.3321 15.08842359 27206,6917.873,95.437,540.649,538.828,0.0
